$$SOE
2461281.500000000, A.D. 2026-Aug-29 00:00:00.0000, -5.127353102446093E+09, -2.483914448009152E+09, -5.620785558471966E+07,
2461288.500000000, A.D. 2026-Sep-05 00:00:00.0000, -5.126049749319623E+09, -2.486820836485415E+09, -5.617429760230947E+07,
2461295.500000000, A.D. 2026-Sep-12 00:00:00.0000, -5.124745020729808E+09, -2.489726620664782E+09, -5.614072505571914E+07,
2461302.500000000, A.D. 2026-Sep-19 00:00:00.0000, -5.123438918641402E+09, -2.492631800796472E+09, -5.610713780129910E+07,
2461309.500000000, A.D. 2026-Sep-26 00:00:00.0000, -5.122131444641221E+09, -2.495536377712232E+09, -5.607353574348116E+07,
2461316.500000000, A.D. 2026-Oct-03 00:00:00.0000, -5.120822599867890E+09, -2.498440352590975E+09, -5.603991882510138E+07,
2461323.500000000, A.D. 2026-Oct-10 00:00:00.0000, -5.119512385028193E+09, -2.501343726816104E+09, -5.600628701827645E+07,
2461330.500000000, A.D. 2026-Oct-17 00:00:00.0000, -5.118200800448357E+09, -2.504246501906377E+09, -5.597264031894803E+07,
2461337.500000000, A.D. 2026-Oct-24 00:00:00.0000, -5.116887846135892E+09, -2.507148679542860E+09, -5.593897874907351E+07,
2461344.500000000, A.D. 2026-Oct-31 00:00:00.0000, -5.115573521753225E+09, -2.510050261758613E+09, -5.590530238085341E+07,
2461351.500000000, A.D. 2026-Nov-07 00:00:00.0000, -5.114257826164044E+09, -2.512951251216999E+09, -5.587161140787625E+07,
2461358.500000000, A.D. 2026-Nov-14 00:00:00.0000, -5.112940756351504E+09, -2.515851650691212E+09, -5.583790620887518E+07,
2461365.500000000, A.D. 2026-Nov-21 00:00:00.0000, -5.111622307520021E+09, -2.518751461063139E+09, -5.580418718197894E+07,
2461372.500000000, A.D. 2026-Nov-28 00:00:00.0000, -5.110302475378755E+09, -2.521650680849619E+09, -5.577045450347388E+07,
2461379.500000000, A.D. 2026-Dec-05 00:00:00.0000, -5.108981256987253E+09, -2.524549307912434E+09, -5.573670819640541E+07,
2461386.500000000, A.D. 2026-Dec-12 00:00:00.0000, -5.107658649998319E+09, -2.527447340241039E+09, -5.570294826962173E+07,
2461393.500000000, A.D. 2026-Dec-19 00:00:00.0000, -5.106334652185377E+09, -2.530344775801626E+09, -5.566917475337195E+07,
2461400.500000000, A.D. 2026-Dec-26 00:00:00.0000, -5.105009261396755E+09, -2.533241612320556E+09, -5.563538768912506E+07,
2461407.500000000, A.D. 2027-Jan-02 00:00:00.0000, -5.103682475661325E+09, -2.536137847193249E+09, -5.560158711432910E+07,
2461414.500000000, A.D. 2027-Jan-09 00:00:00.0000, -5.102354293329142E+09, -2.539033477498489E+09, -5.556777305107367E+07,
2461421.500000000, A.D. 2027-Jan-16 00:00:00.0000, -5.101024713212836E+09, -2.541928500109563E+09, -5.553394550109029E+07,
2461428.500000000, A.D. 2027-Jan-23 00:00:00.0000, -5.099693734685128E+09, -2.544822911942068E+09, -5.550010445453870E+07,
2461435.500000000, A.D. 2027-Jan-30 00:00:00.0000, -5.098361357546384E+09, -2.547716710386348E+09, -5.546624993372416E+07,
2461442.500000000, A.D. 2027-Feb-06 00:00:00.0000, -5.097027581239088E+09, -2.550609893584695E+09, -5.543238208301103E+07,
2461449.500000000, A.D. 2027-Feb-13 00:00:00.0000, -5.095692403871138E+09, -2.553502459333763E+09, -5.539850116316450E+07,
2461456.500000000, A.D. 2027-Feb-20 00:00:00.0000, -5.094355823413125E+09, -2.556394403403287E+09, -5.536460729813731E+07,
2461463.500000000, A.D. 2027-Feb-27 00:00:00.0000, -5.093017839674665E+09, -2.559285720484837E+09, -5.533070036515594E+07,
2461470.500000000, A.D. 2027-Mar-06 00:00:00.0000, -5.091678454042256E+09, -2.562176405848037E+09, -5.529678014800334E+07,
2461477.500000000, A.D. 2027-Mar-13 00:00:00.0000, -5.090337668579215E+09, -2.565066455654800E+09, -5.526284643943548E+07,
2461484.500000000, A.D. 2027-Mar-20 00:00:00.0000, -5.088995485617268E+09, -2.567955866766219E+09, -5.522889905753529E+07,
2461491.500000000, A.D. 2027-Mar-27 00:00:00.0000, -5.087651907637802E+09, -2.570844636591062E+09, -5.519493783952963E+07,
2461498.500000000, A.D. 2027-Apr-03 00:00:00.0000, -5.086306937239914E+09, -2.573732763023603E+09, -5.516096263569582E+07,
2461505.500000000, A.D. 2027-Apr-10 00:00:00.0000, -5.084960577133978E+09, -2.576620244447731E+09, -5.512697330715740E+07,
2461512.500000000, A.D. 2027-Apr-17 00:00:00.0000, -5.083612830138689E+09, -2.579507079821628E+09, -5.509296973081636E+07,
2461519.500000000, A.D. 2027-Apr-24 00:00:00.0000, -5.082263699102354E+09, -2.582393268905215E+09, -5.505895182378459E+07,
2461526.500000000, A.D. 2027-May-01 00:00:00.0000, -5.080913186448791E+09, -2.585278812602517E+09, -5.502491961253464E+07,
2461533.500000000, A.D. 2027-May-08 00:00:00.0000, -5.079561293040454E+09, -2.588163712670577E+09, -5.499087331379187E+07,
2461540.500000000, A.D. 2027-May-15 00:00:00.0000, -5.078208017855659E+09, -2.591047969841468E+09, -5.495681321193421E+07,
2461547.500000000, A.D. 2027-May-22 00:00:00.0000, -5.076853360043753E+09, -2.593931582949028E+09, -5.492273940123892E+07,
2461554.500000000, A.D. 2027-May-29 00:00:00.0000, -5.075497320002323E+09, -2.596814550528542E+09, -5.488865182068884E+07,
2461561.500000000, A.D. 2027-Jun-05 00:00:00.0000, -5.074139898591597E+09, -2.599696871757653E+09, -5.485455040646493E+07,
2461568.500000000, A.D. 2027-Jun-12 00:00:00.0000, -5.072781096493555E+09, -2.602578546306694E+09, -5.482043514260304E+07,
2461575.500000000, A.D. 2027-Jun-19 00:00:00.0000, -5.071420914046802E+09, -2.605459574033440E+09, -5.478630605572522E+07,
2461582.500000000, A.D. 2027-Jun-26 00:00:00.0000, -5.070059351277736E+09, -2.608339954783624E+09, -5.475216320063889E+07,
2461589.500000000, A.D. 2027-Jul-03 00:00:00.0000, -5.068696407995939E+09, -2.611219688288888E+09, -5.471800664804327E+07,
2461596.500000000, A.D. 2027-Jul-10 00:00:00.0000, -5.067332083916913E+09, -2.614098774153462E+09, -5.468383647675931E+07,
2461603.500000000, A.D. 2027-Jul-17 00:00:00.0000, -5.065966378775808E+09, -2.616977211968440E+09, -5.464965277674925E+07,
2461610.500000000, A.D. 2027-Jul-24 00:00:00.0000, -5.064599292275753E+09, -2.619855001616433E+09, -5.461545568215775E+07,
2461617.500000000, A.D. 2027-Jul-31 00:00:00.0000, -5.063230823459316E+09, -2.622732143531111E+09, -5.458124545263314E+07,
2461624.500000000, A.D. 2027-Aug-07 00:00:00.0000, -5.061860969703844E+09, -2.625608637759891E+09, -5.454702249021792E+07,
2461631.500000000, A.D. 2027-Aug-14 00:00:00.0000, -5.060489727641793E+09, -2.628484482083085E+09, -5.451278710134900E+07,
2461638.500000000, A.D. 2027-Aug-21 00:00:00.0000, -5.059117095387824E+09, -2.631359672553699E+09, -5.447853933556139E+07,
2461645.500000000, A.D. 2027-Aug-28 00:00:00.0000, -5.057743072641610E+09, -2.634234205254644E+09, -5.444427911728442E+07,
2461652.500000000, A.D. 2027-Sep-04 00:00:00.0000, -5.056367659847508E+09, -2.637108076771084E+09, -5.441000635801840E+07,
2461659.500000000, A.D. 2027-Sep-11 00:00:00.0000, -5.054990857806384E+09, -2.639981284039194E+09, -5.437572097516644E+07,
2461666.500000000, A.D. 2027-Sep-18 00:00:00.0000, -5.053612667606441E+09, -2.642853824221419E+09, -5.434142288311648E+07,
2461673.500000000, A.D. 2027-Sep-25 00:00:00.0000, -5.052233090644166E+09, -2.645725694685638E+09, -5.430711198416710E+07,
2461680.500000000, A.D. 2027-Oct-02 00:00:00.0000, -5.050852128660323E+09, -2.648596893060308E+09, -5.427278816420031E+07,
2461687.500000000, A.D. 2027-Oct-09 00:00:00.0000, -5.049469783768514E+09, -2.651467417369734E+09, -5.423845129577601E+07,
2461694.500000000, A.D. 2027-Oct-16 00:00:00.0000, -5.048086058412986E+09, -2.654337266303892E+09, -5.420410125915992E+07,
2461701.500000000, A.D. 2027-Oct-23 00:00:00.0000, -5.046700954995727E+09, -2.657206439628111E+09, -5.416973800576568E+07,
2461708.500000000, A.D. 2027-Oct-30 00:00:00.0000, -5.045314474797974E+09, -2.660074938121951E+09, -5.413536164865208E+07,
2461715.500000000, A.D. 2027-Nov-06 00:00:00.0000, -5.043926617359455E+09, -2.662942761918823E+09, -5.410097238126707E+07,
2461722.500000000, A.D. 2027-Nov-13 00:00:00.0000, -5.042537382300752E+09, -2.665809909322369E+09, -5.406657021208918E+07,
2461729.500000000, A.D. 2027-Nov-20 00:00:00.0000, -5.041146770686821E+09, -2.668676378285279E+09, -5.403215495995998E+07,
2461736.500000000, A.D. 2027-Nov-27 00:00:00.0000, -5.039754784314122E+09, -2.671542167585978E+09, -5.399772641618586E+07,
2461743.500000000, A.D. 2027-Dec-04 00:00:00.0000, -5.038361424944853E+09, -2.674407276789160E+09, -5.396328441307914E+07,
2461750.500000000, A.D. 2027-Dec-11 00:00:00.0000, -5.036966694038883E+09, -2.677271705954086E+09, -5.392882882717335E+07,
2461757.500000000, A.D. 2027-Dec-18 00:00:00.0000, -5.035570592708403E+09, -2.680135455429611E+09, -5.389435956997180E+07,
2461764.500000000, A.D. 2027-Dec-25 00:00:00.0000, -5.034173121743286E+09, -2.682998525738022E+09, -5.385987658025253E+07,
2461771.500000000, A.D. 2028-Jan-01 00:00:00.0000, -5.032774281665762E+09, -2.685860917533008E+09, -5.382537982043183E+07,
$$EOE